{"timestamp": "2025-03-02T19:01:21.608120", "data": [ {"OBJECT_NAME": "COSMOS 2477 (745)", "OBJECT_ID": "2011-064B", "EPOCH": "2025-03-02T08:55:38.697024", "MEAN_MOTION": 2.13102917, "ECCENTRICITY": 0.0022055, "INCLINATION": 65.0146, "RA_OF_ASC_NODE": 88.9064, "ARG_OF_PERICENTER": 242.2583, "MEAN_ANOMALY": 301.4824, "EPHEMERIS_TYPE": 0, "CLASSIFICATION_TYPE": "U", "NORAD_CAT_ID": 37868, "ELEMENT_SET_NO": 999, "REV_AT_EPOCH": 10369, "BSTAR": 0, "MEAN_MOTION_DOT": 3.7e-07, "MEAN_MOTION_DDOT": 0, "line1": "1 37868U 11064B   25061.37197566  .00000037  00000+0  00000+0 0  9990", "line2": "2 37868  65.0146  88.9064 0022055 242.2583 301.4824  2.13102917103698"}, {"OBJECT_NAME": "COSMOS 2475 (743)", "OBJECT_ID": "2011-064C", "EPOCH": "2025-03-02T05:38:12.380064", "MEAN_MOTION": 2.13101607, "ECCENTRICITY": 0.0027479, "INCLINATION": 65.0214, "RA_OF_ASC_NODE": 88.9283, "ARG_OF_PERICENTER": 254.7782, "MEAN_ANOMALY": 140.9925, "EPHEMERIS_TYPE": 0, "CLASSIFICATION_TYPE": "U", "NORAD_CAT_ID": 37869, "ELEMENT_SET_NO": 999, "REV_AT_EPOCH": 10370, "BSTAR": 0, "MEAN_MOTION_DOT": 3.8e-07, "MEAN_MOTION_DDOT": 0, "line1": "1 37869U 11064C   25061.23486551  .00000038  00000+0  00000+0 0  9992", "line2": "2 37869  65.0214  88.9283 0027479 254.7782 140.9925  2.13101607103707"}, {"OBJECT_NAME": "BEIDOU-2 IGSO-5 (C10)", "OBJECT_ID": "2011-073A", "EPOCH": "2025-03-01T01:28:38.708832", "MEAN_MOTION": 1.00273265, "ECCENTRICITY": 0.0100919, "INCLINATION": 48.5399, "RA_OF_ASC_NODE": 277.3731, "ARG_OF_PERICENTER": 219.7607, "MEAN_ANOMALY": 140.5226, "EPHEMERIS_TYPE": 0, "CLASSIFICATION_TYPE": "U", "NORAD_CAT_ID": 37948, "ELEMENT_SET_NO": 999, "REV_AT_EPOCH": 4839, "BSTAR": 0, "MEAN_MOTION_DOT": -1.05e-06, "MEAN_MOTION_DDOT": 0, "line1": "1 37948U 11073A   25060.06155913 -.00000105  00000+0  00000+0 0  9991", "line2": "2 37948  48.5399 277.3731 0100919 219.7607 140.5226  1.00273265 48393"}, {"OBJECT_NAME": "LUCH 5A (SDCM/PRN 140)", "OBJECT_ID": "2011-074B", "EPOCH": "2025-03-02T08:14:21.913152", "MEAN_MOTION": 1.00270201, "ECCENTRICITY": 0.0002733, "INCLINATION": 7.5478, "RA_OF_ASC_NODE": 80.9052, "ARG_OF_PERICENTER": 241.6391, "MEAN_ANOMALY": 128.2886, "EPHEMERIS_TYPE": 0, "CLASSIFICATION_TYPE": "U", "NORAD_CAT_ID": 37951, "ELEMENT_SET_NO": 999, "REV_AT_EPOCH": 4846, "BSTAR": 0, "MEAN_MOTION_DOT": -5e-07, "MEAN_MOTION_DDOT": 0, "line1": "1 37951U 11074B   25061.34330918 -.00000050  00000+0  00000+0 0  9997", "line2": "2 37951   7.5478  80.9052 0002733 241.6391 128.2886  1.00270201 48463"}, {"OBJECT_NAME": "BEIDOU-2 G5 (C05)", "OBJECT_ID": "2012-008A", "EPOCH": "2025-03-02T01:18:13.172832", "MEAN_MOTION": 1.0026864, "ECCENTRICITY": 0.0013341, "INCLINATION": 2.3955, "RA_OF_ASC_NODE": 71.2467, "ARG_OF_PERICENTER": 249.3022, "MEAN_ANOMALY": 277.8072, "EPHEMERIS_TYPE": 0, "CLASSIFICATION_TYPE": "U", "NORAD_CAT_ID": 38091, "ELEMENT_SET_NO": 999, "REV_AT_EPOCH": 4774, "BSTAR": 0, "MEAN_MOTION_DOT": 5.6e-07, "MEAN_MOTION_DDOT": 0, "line1": "1 38091U 12008A   25061.05431913  .00000056  00000+0  00000+0 0  9991", "line2": "2 38091   2.3955  71.2467 0013341 249.3022 277.8072  1.00268640 47740"}, {"OBJECT_NAME": "BEIDOU-2 M3 (C11)", "OBJECT_ID": "2012-018A", "EPOCH": "2025-03-02T04:56:51.600192", "MEAN_MOTION": 1.86233531, "ECCENTRICITY": 0.0022256, "INCLINATION": 56.1491, "RA_OF_ASC_NODE": 320.7329, "ARG_OF_PERICENTER": 273.609, "MEAN_ANOMALY": 86.1921, "EPHEMERIS_TYPE": 0, "CLASSIFICATION_TYPE": "U", "NORAD_CAT_ID": 38250, "ELEMENT_SET_NO": 999, "REV_AT_EPOCH": 8750, "BSTAR": 0, "MEAN_MOTION_DOT": -5.8e-07, "MEAN_MOTION_DDOT": 0, "line1": "1 38250U 12018A   25061.20615278 -.00000058  00000+0  00000+0 0  9997", "line2": "2 38250  56.1491 320.7329 0022256 273.6090  86.1921  1.86233531 87505"}, {"OBJECT_NAME": "BEIDOU-2 M4 (C12)", "OBJECT_ID": "2012-018B", "EPOCH": "2025-03-01T01:31:27.007392", "MEAN_MOTION": 1.86232003, "ECCENTRICITY": 0.0013354, "INCLINATION": 56.0543, "RA_OF_ASC_NODE": 320.0231, "ARG_OF_PERICENTER": 280.028, "MEAN_ANOMALY": 79.8792, "EPHEMERIS_TYPE": 0, "CLASSIFICATION_TYPE": "U", "NORAD_CAT_ID": 38251, "ELEMENT_SET_NO": 999, "REV_AT_EPOCH": 8713, "BSTAR": 0, "MEAN_MOTION_DOT": -5e-07, "MEAN_MOTION_DDOT": 0, "line1": "1 38251U 12018B   25060.06350703 -.00000050  00000+0  00000+0 0  9992", "line2": "2 38251  56.0543 320.0231 0013354 280.0280  79.8792  1.86232003 87137"}, {"OBJECT_NAME": "SES-5 (EGNOS/PRN 136)", "OBJECT_ID": "2012-036A", "EPOCH": "2025-03-02T02:39:38.827584", "MEAN_MOTION": 1.0027003, "ECCENTRICITY": 0.0001602, "INCLINATION": 0.0567, "RA_OF_ASC_NODE": 310.0306, "ARG_OF_PERICENTER": 24.4798, "MEAN_ANOMALY": 230.5085, "EPHEMERIS_TYPE": 0, "CLASSIFICATION_TYPE": "U", "NORAD_CAT_ID": 38652, "ELEMENT_SET_NO": 999, "REV_AT_EPOCH": 4633, "BSTAR": 0, "MEAN_MOTION_DOT": 3.1e-07, "MEAN_MOTION_DDOT": 0, "line1": "1 38652U 12036A   25061.11086606  .00000031  00000+0  00000+0 0  9990", "line2": "2 38652   0.0567 310.0306 0001602  24.4798 230.5085  1.00270030 46332"}, {"OBJECT_NAME": "BEIDOU-2 M6 (C14)", "OBJECT_ID": "2012-050B", "EPOCH": "2025-03-02T09:13:18.718752", "MEAN_MOTION": 1.86230903, "ECCENTRICITY": 0.001394, "INCLINATION": 56.1288, "RA_OF_ASC_NODE": 78.5448, "ARG_OF_PERICENTER": 334.7395, "MEAN_ANOMALY": 25.2425, "EPHEMERIS_TYPE": 0, "CLASSIFICATION_TYPE": "U", "NORAD_CAT_ID": 38775, "ELEMENT_SET_NO": 999, "REV_AT_EPOCH": 8487, "BSTAR": 0, "MEAN_MOTION_DOT": 9e-08, "MEAN_MOTION_DDOT": 0, "line1": "1 38775U 12050B   25061.38424443  .00000009  00000+0  00000+0 0  9991", "line2": "2 38775  56.1288  78.5448 0013940 334.7395  25.2425  1.86230903 84878"}, {"OBJECT_NAME": "GSAT-10 (GAGAN/PRN 128)", "OBJECT_ID": "2012-051B", "EPOCH": "2025-03-02T13:59:17.287008", "MEAN_MOTION": 1.00272647, "ECCENTRICITY": 0.0003915, "INCLINATION": 0.1003, "RA_OF_ASC_NODE": 269.5586, "ARG_OF_PERICENTER": 174.212, "MEAN_ANOMALY": 9.6882, "EPHEMERIS_TYPE": 0, "CLASSIFICATION_TYPE": "U", "NORAD_CAT_ID": 38779, "ELEMENT_SET_NO": 999, "REV_AT_EPOCH": 4556, "BSTAR": 0, "MEAN_MOTION_DOT": -1.68e-06, "MEAN_MOTION_DDOT": 0, "line1": "1 38779U 12051B   25061.58283897 -.00000168  00000+0  00000+0 0  9991", "line2": "2 38779   0.1003 269.5586 0003915 174.2120   9.6882  1.00272647 45568"}, {"OBJECT_NAME": "GPS BIIF-3  (PRN 24)", "OBJECT_ID": "2012-053A", "EPOCH": "2025-03-01T16:02:21.425856", "MEAN_MOTION": 2.00561545, "ECCENTRICITY": 0.016316, "INCLINATION": 53.5283, "RA_OF_ASC_NODE": 162.9446, "ARG_OF_PERICENTER": 59.8462, "MEAN_ANOMALY": 301.7739, "EPHEMERIS_TYPE": 0, "CLASSIFICATION_TYPE": "U", "NORAD_CAT_ID": 38833, "ELEMENT_SET_NO": 999, "REV_AT_EPOCH": 8996, "BSTAR": 0, "MEAN_MOTION_DOT": 2.8e-07, "MEAN_MOTION_DDOT": 0, "line1": "1 38833U 12053A   25060.66830354  .00000028  00000+0  00000+0 0  9992", "line2": "2 38833  53.5283 162.9446 0163160  59.8462 301.7739  2.00561545 89966"}, {"OBJECT_NAME": "GSAT0103 (GALILEO-FM3)", "OBJECT_ID": "2012-055A", "EPOCH": "2025-03-02T06:34:09.136704", "MEAN_MOTION": 1.70473421, "ECCENTRICITY": 0.0006052, "INCLINATION": 55.5293, "RA_OF_ASC_NODE": 114.5086, "ARG_OF_PERICENTER": 272.8521, "MEAN_ANOMALY": 87.1685, "EPHEMERIS_TYPE": 0, "CLASSIFICATION_TYPE": "U", "NORAD_CAT_ID": 38857, "ELEMENT_SET_NO": 999, "REV_AT_EPOCH": 7710, "BSTAR": 0, "MEAN_MOTION_DOT": 2.5e-07, "MEAN_MOTION_DDOT": 0, "line1": "1 38857U 12055A   25061.27371686  .00000025  00000+0  00000+0 0  9993", "line2": "2 38857  55.5293 114.5086 0006052 272.8521  87.1685  1.70473421 77106"}, {"OBJECT_NAME": "BEIDOU-2 G6 (C02)", "OBJECT_ID": "2012-059A", "EPOCH": "2025-03-01T16:51:11.126304", "MEAN_MOTION": 1.00268352, "ECCENTRICITY": 0.0010297, "INCLINATION": 3.217, "RA_OF_ASC_NODE": 78.3478, "ARG_OF_PERICENTER": 298.2814, "MEAN_ANOMALY": 119.8605, "EPHEMERIS_TYPE": 0, "CLASSIFICATION_TYPE": "U", "NORAD_CAT_ID": 38953, "ELEMENT_SET_NO": 999, "REV_AT_EPOCH": 4517, "BSTAR": 0, "MEAN_MOTION_DOT": -1.76e-06, "MEAN_MOTION_DDOT": 0, "line1": "1 38953U 12059A   25060.70221211 -.00000176  00000+0  00000+0 0  9997", "line2": "2 38953   3.2170  78.3478 0010297 298.2814 119.8605  1.00268352 45177"}, {"OBJECT_NAME": "LUCH 5B (SDCM/PRN 125)", "OBJECT_ID": "2012-061A", "EPOCH": "2025-03-02T06:42:38.597760", "MEAN_MOTION": 1.002711, "ECCENTRICITY": 0.0003017, "INCLINATION": 9.456, "RA_OF_ASC_NODE": 54.3831, "ARG_OF_PERICENTER": 206.7589, "MEAN_ANOMALY": 343.4518, "EPHEMERIS_TYPE": 0, "CLASSIFICATION_TYPE": "U", "NORAD_CAT_ID": 38977, "ELEMENT_SET_NO": 999, "REV_AT_EPOCH": 4544, "BSTAR": 0, "MEAN_MOTION_DOT": -1.37e-06, "MEAN_MOTION_DDOT": 0, "line1": "1 38977U 12061A   25061.27961340 -.00000137  00000+0  00000+0 0  9990", "line2": "2 38977   9.4560  54.3831 0003017 206.7589 343.4518  1.00271100 45449"}, {"OBJECT_NAME": "COSMOS 2485 (747)", "OBJECT_ID": "2013-019A", "EPOCH": "2025-03-02T07:21:44.614368", "MEAN_MOTION": 2.13104378, "ECCENTRICITY": 0.0025147, "INCLINATION": 65.1627, "RA_OF_ASC_NODE": 89.4711, "ARG_OF_PERICENTER": 236.8225, "MEAN_ANOMALY": 123.0018, "EPHEMERIS_TYPE": 0, "CLASSIFICATION_TYPE": "U", "NORAD_CAT_ID": 39155, "ELEMENT_SET_NO": 999, "REV_AT_EPOCH": 9222, "BSTAR": 0, "MEAN_MOTION_DOT": 3.8e-07, "MEAN_MOTION_DDOT": 0, "line1": "1 39155U 13019A   25061.30676637  .00000038  00000+0  00000+0 0  9998", "line2": "2 39155  65.1627  89.4711 0025147 236.8225 123.0018  2.13104378 92228"}, {"OBJECT_NAME": "GPS BIIF-4  (PRN 27)", "OBJECT_ID": "2013-023A", "EPOCH": "2025-03-02T00:42:17.629344", "MEAN_MOTION": 2.00561753, "ECCENTRICITY": 0.0132556, "INCLINATION": 54.8889, "RA_OF_ASC_NODE": 288.162, "ARG_OF_PERICENTER": 46.6343, "MEAN_ANOMALY": 314.5187, "EPHEMERIS_TYPE": 0, "CLASSIFICATION_TYPE": "U", "NORAD_CAT_ID": 39166, "ELEMENT_SET_NO": 999, "REV_AT_EPOCH": 8640, "BSTAR": 0, "MEAN_MOTION_DOT": -1e-08, "MEAN_MOTION_DDOT": 0, "line1": "1 39166U 13023A   25061.02937071 -.00000001  00000+0  00000+0 0  9997", "line2": "2 39166  54.8889 288.1620 0132556  46.6343 314.5187  2.00561753 86400"}]}